OBJECT_NAME,OBJECT_ID,EPOCH,MEAN_MOTION,ECCENTRICITY,INCLINATION,RA_OF_ASC_NODE,ARG_OF_PERICENTER,MEAN_ANOMALY,EPHEMERIS_TYPE,CLASSIFICATION_TYPE,NORAD_CAT_ID,ELEMENT_SET_NO,REV_AT_EPOCH,BSTAR,MEAN_MOTION_DOT,MEAN_MOTION_DDOT
SL-8 R/B,1985-006B,2026-07-22T20:43:36.921792,14.37848506,.00192246,74.0459,12.4080,254.4346,249.4065,0,U,15483,999,17345,.88106712E-4,.24E-5,0
SL-12 R/B(2),1985-042D,2026-07-23T04:25:57.432000,14.22012330,.00373795,71.1076,161.4619,274.4677,178.3049,0,U,15772,999,13365,.2306656E-4,.3E-7,0
SL-14 R/B,1985-069B,2026-07-23T04:21:17.686944,14.86538851,.00203385,82.5250,257.5149,102.6966,257.6526,0,U,15945,999,19296,.30824848E-4,.299E-5,0
SL-16 R/B,1985-097B,2026-07-23T05:04:19.165152,14.16616644,.0005982,71.0007,215.2355,35.1636,37.3275,0,U,16182,999,10642,.80913429E-4,.114E-5,0
SL-14 R/B,1986-006B,2026-07-23T06:07:37.009344,14.86972764,.00761793,82.5286,132.1740,181.9860,178.1067,0,U,16496,999,16935,.37745255E-4,.383E-5,0
COSMOS 1743,1986-034A,2026-07-23T04:32:14.542080,15.70328670,.00054024,82.5264,290.3588,152.1929,207.9623,0,U,16719,999,20143,.50243094E-3,.61508E-3,0
SL-14 R/B,1986-046B,2026-07-23T07:41:13.666848,14.85695225,.00241678,82.4840,312.0349,137.0503,223.2606,0,U,16792,999,14654,.41109045E-4,.383E-5,0
SL-14 R/B,1986-055B,2026-07-23T04:44:24.679968,14.85744394,.00175055,82.5211,359.2719,241.5465,291.4715,0,U,16882,999,13948,.40838772E-4,.379E-5,0
AJISAI (EGS),1986-061A,2026-07-23T06:10:35.000256,12.44516667,.0011077,50.0106,36.4803,272.4931,84.2801,0,U,16908,999,48487,-.45930438E-4,-.104E-5,0
SL-14 R/B,1987-024B,2026-07-23T07:18:19.661472,14.86236452,.00185635,82.5304,325.3034,166.9024,193.2679,0,U,17567,999,10827,.42056142E-4,.395E-5,0
COSMOS 1833,1987-027A,2026-07-22T23:57:40.654080,14.13067877,.00248247,70.9214,41.5986,356.2743,3.8189,0,U,17589,999,2943,.15075513E-4,-.2E-6,0
SL-16 R/B,1987-027B,2026-07-23T06:49:48.512064,14.17176558,.00072836,71.0044,350.7585,273.3415,86.6876,0,U,17590,999,3455,.45200808E-4,.43E-6,0
SL-14 R/B,1987-038B,2026-07-23T07:14:39.699168,14.85465824,.0020821,82.5022,169.0549,77.4293,282.9250,0,U,17912,999,9936,.43418277E-4,.4E-5,0
COSMOS 1844,1987-041A,2026-07-23T04:06:19.041408,14.14581118,.00307912,70.9000,108.4076,183.7216,176.3682,0,U,17973,999,2274,-.36085109E-4,-.118E-5,0
SL-14 R/B,1987-055B,2026-07-23T02:52:52.792608,14.85730443,.00190511,82.4968,221.3532,286.9807,72.9321,0,U,18153,999,9004,.33507615E-4,.316E-5,0
COSMOS 1867,1987-060A,2026-07-23T04:21:14.832288,14.31519092,.00173434,65.0111,287.2548,281.9360,77.9780,0,U,18187,999,3933,.11254469E-4,-.7E-6,0
SL-14 R/B,1988-001B,2026-07-23T02:59:28.193568,14.85630359,.00188193,82.5114,67.9604,146.3528,213.8888,0,U,18749,999,6213,.32663398E-4,.308E-5,0
COSMOS 1933,1988-020A,2026-07-23T04:57:55.509408,15.18928339,.00059677,82.5136,116.7629,87.7236,272.4682,0,U,18958,999,7079,.14374669E-3,.3033E-4,0
SL-3 R/B,1988-032B,2026-07-23T03:56:43.617408,15.21076097,.0027079,97.5280,187.1792,119.3141,241.0805,0,U,19046,999,7269,.19393688E-3,.428E-4,0
SL-16 R/B,1988-039B,2026-07-23T06:25:46.348320,14.19632307,.00202328,71.0149,141.8661,136.1472,224.1264,0,U,19120,999,97762,-.13469476E-4,-.77E-6,0
COSMOS 1953,1988-050A,2026-07-23T05:54:31.275648,15.30417796,.00107738,82.5071,21.6543,12.9511,347.2004,0,U,19210,999,5850,.24854365E-3,.7354E-4,0
SL-8 R/B,1988-053B,2026-07-23T03:46:24.784320,14.38980613,.00200339,74.0451,222.7513,5.9890,56.2210,0,U,19257,999,99608,.58006555E-4,.153E-5,0
COSMOS 1975,1988-093A,2026-07-23T07:58:13.713888,15.29746532,.00121358,82.5204,341.3310,56.8545,303.3858,0,U,19573,999,4013,.26255542E-3,.7613E-4,0
SL-14 R/B,1988-093B,2026-07-23T03:54:29.683584,14.85763552,.00194108,82.5306,274.8723,312.7670,75.6785,0,U,19574,999,2113,.30633639E-4,.291E-5,0
SL-16 R/B,1988-102B,2026-07-23T07:28:14.078784,14.16168872,.00138173,70.9972,226.1290,173.0554,187.0763,0,U,19650,999,94609,.14934774E-3,.248E-5,0
INTERCOSMOS 24,1989-080A,2026-07-23T05:32:44.885184,12.59694620,.1186817,82.6060,16.1820,338.2891,17.1616,0,U,20261,999,68386,.74691829E-4,.261E-5,0
SL-14 R/B,1989-080C,2026-07-23T03:55:07.530240,12.50579676,.12290139,82.5923,86.1911,235.0629,112.8949,0,U,20262,999,67708,.30011598E-4,.105E-5,0
DELTA 1 R/B,1989-089B,2026-07-23T02:02:07.727424,14.50751265,.00704106,97.0639,29.8989,55.5585,305.2241,0,U,20323,999,91536,.69025699E-4,.245E-5,0
ARIANE 40 R/B,1990-005H,2026-07-23T04:16:56.012448,14.39943472,.00107832,98.2937,260.6714,151.2148,208.9638,0,U,20443,999,91230,.66137407E-4,.166E-5,0
DELTA 2 R/B(1),1990-008B,2026-07-22T12:06:43.937280,15.74987263,.00552819,35.6009,358.3366,85.6554,275.0502,0,U,20453,999,94726,.72436855E-3,.125068E-2,0
