SL-8 R/B                
1 15483U 85006B   26203.86362178  .00000240  00000+0  88107-4 0  9997
2 15483  74.0459  12.4080 0019224 254.4346 249.4065 14.37848506173459
SL-12 R/B(2)            
1 15772U 85042D   26204.18469250  .00000003  00000+0  23067-4 0  9994
2 15772  71.1076 161.4619 0037379 274.4677 178.3049 14.22012330133658
SL-14 R/B               
1 15945U 85069B   26204.18145471  .00000299  00000+0  30825-4 0  9998
2 15945  82.5250 257.5149 0020338 102.6966 257.6526 14.86538851192966
SL-16 R/B               
1 16182U 85097B   26204.21133293  .00000114  00000+0  80913-4 0  9995
2 16182  71.0007 215.2355 0005982  35.1636  37.3275 14.16616644106425
SL-14 R/B               
1 16496U 86006B   26204.25528946  .00000383  00000+0  37745-4 0  9994
2 16496  82.5286 132.1740 0076179 181.9860 178.1067 14.86972764169358
COSMOS 1743             
1 16719U 86034A   26204.18905720  .00061508  00000+0  50243-3 0  9997
2 16719  82.5264 290.3588 0005402 152.1929 207.9623 15.70328670201436
SL-14 R/B               
1 16792U 86046B   26204.32029707  .00000383  00000+0  41109-4 0  9995
2 16792  82.4840 312.0349 0024167 137.0503 223.2606 14.85695225146542
SL-14 R/B               
1 16882U 86055B   26204.19750787  .00000379  00000+0  40839-4 0  9993
2 16882  82.5211 359.2719 0017505 241.5465 291.4715 14.85744394139480
AJISAI (EGS)            
1 16908U 86061A   26204.25734954 -.00000104  00000+0 -45930-4 0  9999
2 16908  50.0106  36.4803 0011077 272.4931  84.2801 12.44516667484872
SL-14 R/B               
1 17567U 87024B   26204.30439423  .00000395  00000+0  42056-4 0  9996
2 17567  82.5304 325.3034 0018563 166.9024 193.2679 14.86236452108277
COSMOS 1833             
1 17589U 87027A   26203.99838720 -.00000020  00000+0  15076-4 0  9998
2 17589  70.9214  41.5986 0024824 356.2743   3.8189 14.13067877 29439
SL-16 R/B               
1 17590U 87027B   26204.28458926  .00000043  00000+0  45201-4 0  9996
2 17590  71.0044 350.7585 0007283 273.3415  86.6876 14.17176558 34551
SL-14 R/B               
1 17912U 87038B   26204.30184837  .00000400  00000+0  43418-4 0  9991
2 17912  82.5022 169.0549 0020821  77.4293 282.9250 14.85465824 99362
COSMOS 1844             
1 17973U 87041A   26204.17105372 -.00000118  00000+0 -36085-4 0  9994
2 17973  70.9000 108.4076 0030791 183.7216 176.3682 14.14581118 22741
SL-14 R/B               
1 18153U 87055B   26204.12005547  .00000316  00000+0  33508-4 0  9993
2 18153  82.4968 221.3532 0019051 286.9807  72.9321 14.85730443 90047
COSMOS 1867             
1 18187U 87060A   26204.18142167 -.00000070  00000+0  11254-4 0  9994
2 18187  65.0111 287.2548 0017343 281.9360  77.9780 14.31519092 39335
SL-14 R/B               
1 18749U 88001B   26204.12463187  .00000308  00000+0  32663-4 0  9996
2 18749  82.5114  67.9604 0018819 146.3528 213.8888 14.85630359 62134
COSMOS 1933             
1 18958U 88020A   26204.20689247  .00003033  00000+0  14375-3 0  9992
2 18958  82.5136 116.7629 0005967  87.7236 272.4682 15.18928339 70793
SL-3 R/B                
1 19046U 88032B   26204.16439372  .00004280  00000+0  19394-3 0  9992
2 19046  97.5280 187.1792 0027079 119.3141 241.0805 15.21076097 72695
SL-16 R/B               
1 19120U 88039B   26204.26789755 -.00000077  00000+0 -13469-4 0  9996
2 19120  71.0149 141.8661 0020232 136.1472 224.1264 14.19632307977625
COSMOS 1953             
1 19210U 88050A   26204.24619532  .00007354  00000+0  24854-3 0  9994
2 19210  82.5071  21.6543 0010773  12.9511 347.2004 15.30417796 58507
SL-8 R/B                
1 19257U 88053B   26204.15723130  .00000153  00000+0  58007-4 0  9996
2 19257  74.0451 222.7513 0020033   5.9890  56.2210 14.38980613996089
COSMOS 1975             
1 19573U 88093A   26204.33210317  .00007613  00000+0  26256-3 0  9997
2 19573  82.5204 341.3310 0012135  56.8545 303.3858 15.29746532 40130
SL-14 R/B               
1 19574U 88093B   26204.16284356  .00000291  00000+0  30634-4 0  9994
2 19574  82.5306 274.8723 0019410 312.7670  75.6785 14.85763552 21137
SL-16 R/B               
1 19650U 88102B   26204.31127406  .00000248  00000+0  14935-3 0  9996
2 19650  70.9972 226.1290 0013817 173.0554 187.0763 14.16168872946098
INTERCOSMOS 24          
1 20261U 89080A   26204.23107506  .00000261  00000+0  74692-4 0  9994
2 20261  82.6060  16.1820 1186817 338.2891  17.1616 12.59694620683866
SL-14 R/B               
1 20262U 89080C   26204.16328160  .00000105  00000+0  30012-4 0  9993
2 20262  82.5923  86.1911 1229013 235.0629 112.8949 12.50579676677084
DELTA 1 R/B             
1 20323U 89089B   26204.08481166  .00000245  00000+0  69026-4 0  9999
2 20323  97.0639  29.8989 0070410  55.5585 305.2241 14.50751265915363
ARIANE 40 R/B           
1 20443U 90005H   26204.17842607  .00000166  00000+0  66137-4 0  9995
2 20443  98.2937 260.6714 0010783 151.2148 208.9638 14.39943472912307
DELTA 2 R/B(1)          
1 20453U 90008B   26203.50467520  .00125068  00000+0  72437-3 0  9990
2 20453  35.6009 358.3366 0055281  85.6554 275.0502 15.74987263947268
